#dP2024  9 12 18  0  0.00000000      96 __u+U IGS20 EXT  IAC
## 2331 410400.00000000   900.00000000 60565 0.7500000000000
+   53   G02G03G04G05G06G07G08G09G10G11G12G13G14G15G16G17G18
+        G19G20G21G22G23G24G25G26G27G28G29G30G31G32R01R02R03
+        R04R05R07R08R09R11R12R14R15R16R17R18R19R20R21R22R24
+        R25R26  0  0  0  0  0  0  0  0  0  0  0  0  0  0  0
+          0  0  0  0  0  0  0  0  0  0  0  0  0  0  0  0  0
++         8  7  7  7  8  7  7  7  6  9  7  8  6  8  7  7  9
++         7  8  8  7  6  9  7  7  7  7  4  8  7  8  8  8  8
++         9  7  8  9  7  8  8  9  9  8  9  9  9  8 10  7  8
++         9  9  0  0  0  0  0  0  0  0  0  0  0  0  0  0  0
++         0  0  0  0  0  0  0  0  0  0  0  0  0  0  0  0  0
%c M  cc GPS ccc cccc cccc cccc cccc ccccc ccccc ccccc ccccc
%c cc cc ccc ccc cccc cccc cccc cccc ccccc ccccc ccccc ccccc
%f  0.0000000  0.000000000  0.00000000000  0.000000000000000
%f  0.0000000  0.000000000  0.00000000000  0.000000000000000
%i    0    0    0    0      0      0      0      0         0
%i    0    0    0    0      0      0      0      0         0
/* IAC                                ULTRA-RAPID PREDICTION
/* S/V CLOCKS ARE ALIGNED TO GNSS TIME                      
/* G:C1WC2W R:C1PC2P E:C1XC5X C:C2IC6I J:C1CC2S             
/* PCV:IGS20_2317 OL/AL:FES2004  NONE     YN ORB:CoN CLK:CoN
*  2024 09 13  8 30  0.00000000
PG02  20785.376610  10470.196969  13568.293529   -359.069723
PG03  16158.035013  -1847.965182  20806.292968    536.018026
PG04  26422.833995   1006.660314   3250.448182    442.758528
PG05  -8917.387307 -14744.075717 -20377.025711   -186.430469
PG06  -1441.755199 -21104.806095  16059.982642     34.135977
PG07  14391.654125  -5681.195462 -21100.015720    -38.476129
PG08  21621.019938   7463.296900 -13972.342499    350.794104
PG09  24454.142495  -7686.709920  -7162.072020    354.496628
PG10 -10026.816901  24324.370445   2072.734934   -123.742486
PG11 -12277.916817 -23416.825714   2923.796872   -734.011319
PG12 -15369.862690  -2817.688449  21191.106728   -537.690908
PG13 -14118.599260 -13417.885337 -18391.983156    676.217265
PG14  12973.135702 -22957.809476  -1844.660586    494.487615
PG15 -22294.635476  -5267.307365 -14099.864269    203.727234
PG16   4490.506757  18377.482862 -18794.276665   -182.325781
PG17  12593.461235 -13687.101858  19449.050315    628.226484
PG18 -13600.268317   6375.186759 -21895.279270   -653.039848
PG19   2987.797368 -14867.946255  21622.191683    537.434906
PG20  -3154.454864 -23109.359759 -12776.616628    370.688276
PG21  20733.110664  15467.301184   8500.696794    101.844223
PG22   8714.967349 -24402.960297   6919.334220    -61.357828
PG23 -15874.091824  18194.524431 -10777.765127    319.090112
PG24 -20909.322979 -12573.949154  10530.872063   -486.719968
PG25 -17598.344967  10436.815871  16453.767949    499.610963
PG26  -2524.282472  24883.645503  -8512.780629     79.968968
PG27  11716.594929  13175.223144 -20278.209086    -33.826915
PG28      4.367405  20195.811657  17237.198948   -409.362098
PG29      0.000000      0.000000      0.000000   -578.168391
PG30   6640.658943 -16075.247976 -19851.372891   -322.210672
PG31   9364.566195  23481.350920   7250.114132   -224.760070
PG32 -10390.606814  14711.179526  19668.749401   -597.613387
PR01  19703.454602 -14267.861707  -7665.730630     97.631376
PR02   6585.206691 -13610.881891 -20527.127484    -24.640113
PR03 -11238.525981  -6047.923536 -22033.602192    107.461444
PR04 -22277.973086   4534.234051 -11524.415357    254.456655
PR05 -21540.271070  12619.173161   5171.767597    137.585221
PR07  11849.141367   5695.446592  21904.069134     90.812728
PR08  22367.950813  -4795.297590  11380.609870     -6.393834
PR09  -1063.409421  25531.596391     26.283239    208.875051
PR11  10693.260279   3277.008112 -22913.251894     11.967678
PR12   9098.845568 -17257.421732 -16411.943965     44.790294
PR14  -6625.715806 -18762.329491  15963.128338     26.910971
PR15 -10997.824529  -1398.232772  22995.293342     75.930458
PR16  -9003.411372  17140.245904  16642.081327     29.090217
PR17 -19055.778509 -16152.747942   5304.541592    121.575589
PR18 -21167.028422  -8927.390043 -11029.196784    161.814956
PR19 -14113.701912   1192.695199 -21215.854653   -291.191405
PR20   4611.242422  14865.306336 -20208.725712   -118.997961
PR21  18546.163731  16422.885637  -5998.773581   -134.056497
PR22  20852.032295   8452.781834  12048.790685     48.027972
PR24  -5527.322278 -15170.823035  19776.233972    -71.832133
PR25  18534.057361  16805.492743  -4892.557114   -100.611367
PR26  21766.665001  -3984.951373  12687.437498     25.411418
*  2024 09 13  8 45  0.00000000
PG02  21549.551375  11581.923490  11210.819554   -359.062599
PG03  15223.060438    423.993414  21578.374783    536.030141
PG04  25914.766419   1273.014427   6042.080544    442.764946
PG05  -8043.412727 -16789.045975 -19101.326518   -186.431651
PG06   -222.235575 -19602.447260  17934.962509     34.112639
PG07  15842.696224  -3655.076589 -20555.911586    -38.471962
PG08  19982.618498   7890.247303 -16004.486001    350.805879
PG09  25132.883283  -7535.407469  -4415.541361    354.511043
PG10 -10238.385483  24283.761062   -850.549711   -123.753448
PG11 -11813.996645 -23137.845513   5730.021501   -734.015206
PG12 -14250.760328  -5060.158494  21552.667732   -537.693500
PG13 -11983.611334 -13454.160241 -19821.139293    676.219175
PG14  13101.026687 -22481.066395  -4648.646818    494.495309
PG15 -20763.677442  -5909.398792 -16099.874565    203.731121
PG16   3394.330959  20071.935261 -17152.496707   -182.316515
PG17  14649.570066 -13691.835821  17927.068757    628.216409
PG18 -15022.916343   4343.632428 -21478.249057   -653.041891
PG19   5470.080129 -14834.813684  21120.149809    537.439350
PG20  -2636.367980 -24354.820536 -10381.225007    370.687922
PG21  21118.114261  16129.444269   5857.690992    101.843581
PG22   9187.833592 -24809.049864   4175.013607    -61.361197
PG23 -15529.337579  16844.726960 -13213.892630    319.097700
PG24 -21451.166406 -13582.612849   8030.690571   -486.719725
PG25 -16996.529713   8466.908460  18123.764250    499.611027
PG26  -3113.721618  25546.706673  -5863.791069     79.961348
PG27   9437.328872  13519.666570 -21194.917357    -33.827029
PG28  -1390.156064  18665.168771  18831.829271   -409.374650
PG29      0.000000      0.000000      0.000000   -578.166166
PG30   8140.802285 -14244.288930 -20691.468578   -322.204302
PG31   8544.352471  22812.894928   9878.918057   -224.759681
PG32 -12524.224774  14849.296004  18237.262610   -597.610122
PR01  20292.579835 -14759.987379  -4568.688575     97.632428
PR02   8716.624051 -14796.235515 -18853.148613    -24.640277
PR03  -8760.604970  -7300.684394 -22770.439010    107.462104
PR04 -20790.400457   3944.786696 -14205.423527    254.458144
PR05 -21854.710737  12975.979329   1980.998991    137.585695
PR07   9392.795736   6921.987491  22723.120847     90.813438
PR08  20918.237497  -4200.902196  14064.770550     -6.393845
PR09   -964.961766  25336.838219   3197.505805    208.877011
PR11  10631.605714   6073.347894 -22366.774273     11.966660
PR12   8933.264942 -15103.761083 -18489.990737     44.790688
PR14  -6663.150924 -20580.286368  13515.747111     26.911003
PR15 -10904.060887  -4209.403444  22694.223533     75.930133
PR16  -8830.426859  14967.638433  18701.440863     29.090485
PR17 -18447.360495 -15540.449950   8388.394608    121.578641
PR18 -22255.696577  -9428.123345  -8076.279413    161.816620
PR19 -16236.456460   -182.793638 -19675.730338   -291.192639
PR20   2559.929410  13286.460282 -21619.830915   -118.998327
PR21  17871.138341  15753.767573  -9062.405578   -134.059400
PR22  22000.046586   9091.246955   9199.433306     48.019869
PR24  -3441.731716 -13744.247202  21237.053692    -71.833594
PR25  17962.129889  16235.001542  -7977.774797   -100.610713
PR26  20181.940128  -3297.023545  15250.245700     25.422724
EOF
